{
    "links": {
        "self": "http://www.neowsapp.com/rest/v1/neo/54048924?api_key=iIulBulltgU6a56xZRHN4H3l9WmuAYTsLGpBGhQ2"
    },
    "id": "54048924",
    "neo_reference_id": "54048924",
    "name": "(2020 OG2)",
    "designation": "2020 OG2",
    "nasa_jpl_url": "http://ssd.jpl.nasa.gov/sbdb.cgi?sstr=54048924",
    "absolute_magnitude_h": 24.32,
    "estimated_diameter": {
        "kilometers": {
            "estimated_diameter_min": 0.0363542322,
            "estimated_diameter_max": 0.0812905344
        },
        "meters": {
            "estimated_diameter_min": 36.3542321843,
            "estimated_diameter_max": 81.290534434
        },
        "miles": {
            "estimated_diameter_min": 0.0225894656,
            "estimated_diameter_max": 0.0505115807
        },
        "feet": {
            "estimated_diameter_min": 119.2724191197,
            "estimated_diameter_max": 266.7012369924
        }
    },
    "is_potentially_hazardous_asteroid": false,
    "close_approach_data": [
        {
            "close_approach_date": "2020-07-28",
            "close_approach_date_full": "2020-Jul-28 15:11",
            "epoch_date_close_approach": 1595949060000,
            "relative_velocity": {
                "kilometers_per_second": "17.6987136725",
                "kilometers_per_hour": "63715.3692210979",
                "miles_per_hour": "39590.2526140761"
            },
            "miss_distance": {
                "astronomical": "0.0736651697",
                "lunar": "28.6557510133",
                "kilometers": "11020152.480308539",
                "miles": "6847605.2235902782"
            },
            "orbiting_body": "Earth"
        }
    ],
    "orbital_data": {
        "orbit_id": "7",
        "orbit_determination_date": "2020-07-30 07:21:39",
        "first_observation_date": "2020-07-19",
        "last_observation_date": "2020-07-29",
        "data_arc_in_days": 10,
        "observations_used": 51,
        "orbit_uncertainty": "8",
        "minimum_orbit_intersection": ".0732206",
        "jupiter_tisserand_invariant": "4.010",
        "epoch_osculation": "2459052.5",
        "eccentricity": ".466504067464464",
        "semi_major_axis": "1.672522358743191",
        "inclination": "26.34866104457812",
        "ascending_node_longitude": "301.0515658159446",
        "orbital_period": "790.0531795815286",
        "perihelion_distance": ".8922838754642332",
        "perihelion_argument": "67.52620417852189",
        "aphelion_distance": "2.45276084202215",
        "perihelion_time": "2459108.805169981616",
        "mean_anomaly": "334.3436749357579",
        "mean_motion": ".4556655289846222",
        "equinox": "J2000",
        "orbit_class": {
            "orbit_class_type": "APO",
            "orbit_class_description": "Near-Earth asteroid orbits which cross the Earth’s orbit similar to that of 1862 Apollo",
            "orbit_class_range": "a (semi-major axis) > 1.0 AU; q (perihelion) < 1.017 AU"
        }
    },
    "is_sentry_object": false
}